[
    {
        "CCSDS_OMM_VERS": "3.0",
        "COMMENT": "GENERATED VIA SPACE-TRACK.ORG API",
        "CREATION_DATE": "2025-03-02T18:08:23",
        "ORIGINATOR": "18 SPCS",
        "OBJECT_NAME": "BEIDOU 3M24",
        "OBJECT_ID": "2019-061B",
        "CENTER_NAME": "EARTH",
        "REF_FRAME": "TEME",
        "TIME_SYSTEM": "UTC",
        "MEAN_ELEMENT_THEORY": "SGP4",
        "EPOCH": "2025-03-02T08:37:04.656288",
        "MEAN_MOTION": "1.86228984",
        "ECCENTRICITY": "0.00047280",
        "INCLINATION": "54.4188",
        "RA_OF_ASC_NODE": "198.6096",
        "ARG_OF_PERICENTER": "10.9039",
        "MEAN_ANOMALY": "328.9342",
        "EPHEMERIS_TYPE": "0",
        "CLASSIFICATION_TYPE": "U",
        "NORAD_CAT_ID": "44543",
        "ELEMENT_SET_NO": "999",
        "REV_AT_EPOCH": "3700",
        "BSTAR": "0.00000000000000",
        "MEAN_MOTION_DOT": "0.00000044",
        "MEAN_MOTION_DDOT": "0.0000000000000",
        "SEMIMAJOR_AXIS": "27906.390",
        "PERIOD": "773.242",
        "APOAPSIS": "21541.449",
        "PERIAPSIS": "21515.061",
        "OBJECT_TYPE": "PAYLOAD",
        "RCS_SIZE": "LARGE",
        "COUNTRY_CODE": "PRC",
        "LAUNCH_DATE": "2019-09-22",
        "SITE": "XSC",
        "DECAY_DATE": null,
        "FILE": "4657142",
        "GP_ID": "282087371",
        "TLE_LINE0": "0 BEIDOU 3M24",
        "TLE_LINE1": "1 44543U 19061B   25061.35908167  .00000044  00000-0  00000-0 0  9998",
        "TLE_LINE2": "2 44543  54.4188 198.6096 0004728  10.9039 328.9342  1.86228984 37003"
    }
]